ONEWEB-0228             
1 48780U 21045P   24024.64568484  .00000091  00000+0  20716-3 0  9994
2 48780  87.8961  73.2647 0001951  99.4981 260.6370 13.15551289129346
